start=new Date('2022-06-05T00:00:00.000Z').valueOf();
sats=[{"RCS_SIZE":"LARGE","SITE":"AFETR","RA_OF_ASC_NODE":"225.7749","FILE":"3480894","COUNTRY_CODE":"US","TLE_LINE2":"2 46572  53.0529 225.7749 0001528  51.0221 309.0904 15.06393879 92370","OBJECT_TYPE":"PAYLOAD","OBJECT_NAME":"STARLINK-1531","PERIOD":"95.593","MEAN_MOTION_DDOT":"0.0000000000000","MEAN_MOTION":"15.06393879","REV_AT_EPOCH":"9237","ELEMENT_SET_NO":"999","NORAD_CAT_ID":"46572","TIME_SYSTEM":"UTC","EPHEMERIS_TYPE":"0","MEAN_MOTION_DOT":"-0.00000302","GP_ID":"205351002","REF_FRAME":"TEME","APOAPSIS":"548.291","MEAN_ANOMALY":"309.0904","CLASSIFICATION_TYPE":"U","OBJECT_ID":"2020-070AS","PERIAPSIS":"546.174","LAUNCH_DATE":"2020-10-06","BSTAR":"-0.00000139720000","ECCENTRICITY":"0.00015280","ARG_OF_PERICENTER":"51.0221","INCLINATION":"53.0529","MEAN_ELEMENT_THEORY":"SGP4","TLE_LINE1":"1 46572U 20070AS  22155.46238996 -.00000302  00000-0 -13972-5 0  9999","DECAY_DATE":null,"EPOCH":"2022-06-04T11:05:50.492544","SEMIMAJOR_AXIS":"6925.367","CENTER_NAME":"EARTH"},{"RCS_SIZE":"LARGE","SITE":"AFETR","RA_OF_ASC_NODE":"209.0727","TLE_LINE2":"2 46573  53.0549 209.0727 0001765  52.3986 307.7163 15.06392644 92651","OBJECT_TYPE":"PAYLOAD","FILE":"3481165","COUNTRY_CODE":"US","OBJECT_NAME":"STARLINK-1650","PERIOD":"95.593","MEAN_MOTION_DDOT":"0.0000000000000","MEAN_MOTION":"15.06392644","ELEMENT_SET_NO":"999","REV_AT_EPOCH":"9265","TIME_SYSTEM":"UTC","NORAD_CAT_ID":"46573","MEAN_MOTION_DOT":"-0.00000813","EPHEMERIS_TYPE":"0","REF_FRAME":"TEME","GP_ID":"205360500","CLASSIFICATION_TYPE":"U","MEAN_ANOMALY":"307.7163","APOAPSIS":"548.458","OBJECT_ID":"2020-070AT","BSTAR":"-0.00003570600000","LAUNCH_DATE":"2020-10-06","PERIAPSIS":"546.014","MEAN_ELEMENT_THEORY":"SGP4","ARG_OF_PERICENTER":"52.3986","INCLINATION":"53.0549","ECCENTRICITY":"0.00017650","TLE_LINE1":"1 46573U 20070AT  22155.83789444 -.00000813  00000-0 -35706-4 0  9995","CENTER_NAME":"EARTH","SEMIMAJOR_AXIS":"6925.371","EPOCH":"2022-06-04T20:06:34.079616","DECAY_DATE":null},{"MEAN_MOTION_DOT":"-0.00000042","EPHEMERIS_TYPE":"0","NORAD_CAT_ID":"46574","TIME_SYSTEM":"UTC","ELEMENT_SET_NO":"999","REV_AT_EPOCH":"9258","PERIOD":"95.592","OBJECT_NAME":"STARLINK-1660","MEAN_MOTION_DDOT":"0.0000000000000","MEAN_MOTION":"15.06398586","OBJECT_TYPE":"PAYLOAD","TLE_LINE2":"2 46574  53.0548 210.9372 0001575  61.9125 298.2023 15.06398586 92580","FILE":"3480894","COUNTRY_CODE":"US","RA_OF_ASC_NODE":"210.9372","SITE":"AFETR","RCS_SIZE":"LARGE","EPOCH":"2022-06-04T10:12:05.279904","DECAY_DATE":null,"CENTER_NAME":"EARTH","SEMIMAJOR_AXIS":"6925.353","TLE_LINE1":"1 46574U 20070AU  22155.42506111 -.00000042  00000-0  16091-4 0  9998","INCLINATION":"53.0548","ARG_OF_PERICENTER":"61.9125","ECCENTRICITY":"0.00015750","MEAN_ELEMENT_THEORY":"SGP4","PERIAPSIS":"546.127","BSTAR":"0.00001609100000","LAUNCH_DATE":"2020-10-06","OBJECT_ID":"2020-070AU","APOAPSIS":"548.309","CLASSIFICATION_TYPE":"U","MEAN_ANOMALY":"298.2023","GP_ID":"205350502","REF_FRAME":"TEME"},{"COUNTRY_CODE":"US","FILE":"3481313","TLE_LINE2":"2 46575  53.0581 184.1927 0001927  47.7037 312.4115 15.06398146 92988","OBJECT_TYPE":"PAYLOAD","RA_OF_ASC_NODE":"184.1927","SITE":"AFETR","RCS_SIZE":"LARGE","EPHEMERIS_TYPE":"0","MEAN_MOTION_DOT":"0.00000580","TIME_SYSTEM":"UTC","NORAD_CAT_ID":"46575","REV_AT_EPOCH":"9298","ELEMENT_SET_NO":"999","PERIOD":"95.592","OBJECT_NAME":"STARLINK-1675","MEAN_MOTION_DDOT":"0.0000000000000","MEAN_MOTION":"15.06398146","OBJECT_ID":"2020-070AV","MEAN_ANOMALY":"312.4115","CLASSIFICATION_TYPE":"U","APOAPSIS":"548.554","REF_FRAME":"TEME","GP_ID":"205385450","SEMIMAJOR_AXIS":"6925.354","CENTER_NAME":"EARTH","DECAY_DATE":null,"EPOCH":"2022-06-04T19:30:04.215456","TLE_LINE1":"1 46575U 20070AV  22155.81254879  .00000580  00000-0  57845-4 0  9991","MEAN_ELEMENT_THEORY":"SGP4","ECCENTRICITY":"0.00019270","INCLINATION":"53.0581","ARG_OF_PERICENTER":"47.7037","LAUNCH_DATE":"2020-10-06","BSTAR":"0.00005784500000","PERIAPSIS":"545.885"},{"OBJECT_TYPE":"PAYLOAD","TLE_LINE2":"2 46576  53.0542 208.8738 0002040  45.9487 314.1669 15.06401668 92657","COUNTRY_CODE":"US","FILE":"3481313","RA_OF_ASC_NODE":"208.8738","SITE":"AFETR","RCS_SIZE":"LARGE","MEAN_MOTION_DOT":"0.00000559","EPHEMERIS_TYPE":"0","NORAD_CAT_ID":"46576","TIME_SYSTEM":"UTC","ELEMENT_SET_NO":"999","REV_AT_EPOCH":"9265","MEAN_MOTION":"15.06401668","PERIOD":"95.592","MEAN_MOTION_DDOT":"0.0000000000000","OBJECT_NAME":"STARLINK-1677","OBJECT_ID":"2020-070AW","APOAPSIS":"548.621","CLASSIFICATION_TYPE":"U","MEAN_ANOMALY":"314.1669","GP_ID":"205386198","REF_FRAME":"TEME","EPOCH":"2022-06-04T21:10:14.529504","DECAY_DATE":null,"CENTER_NAME":"EARTH","SEMIMAJOR_AXIS":"6925.343","TLE_LINE1":"1 46576U 20070AW  22155.88211261  .00000559  00000-0  56415-4 0  9995","INCLINATION":"53.0542","ARG_OF_PERICENTER":"45.9487","ECCENTRICITY":"0.00020400","MEAN_ELEMENT_THEORY":"SGP4","PERIAPSIS":"545.796","BSTAR":"0.00005641500000","LAUNCH_DATE":"2020-10-06"},{"PERIAPSIS":"546.046","LAUNCH_DATE":"2020-10-06","BSTAR":"0.00001892400000","ECCENTRICITY":"0.00016870","INCLINATION":"53.0534","ARG_OF_PERICENTER":"51.7664","MEAN_ELEMENT_THEORY":"SGP4","TLE_LINE1":"1 46577U 20070AX  22155.84525568  .00000000  00000-0  18924-4 0  9994","DECAY_DATE":null,"EPOCH":"2022-06-04T20:17:10.090752","SEMIMAJOR_AXIS":"6925.350","CENTER_NAME":"EARTH","GP_ID":"205384953","REF_FRAME":"TEME","APOAPSIS":"548.383","MEAN_ANOMALY":"308.3476","CLASSIFICATION_TYPE":"U","OBJECT_ID":"2020-070AX","MEAN_MOTION":"15.06399630","PERIOD":"95.592","MEAN_MOTION_DDOT":"0.0000000000000","OBJECT_NAME":"STARLINK-1682","REV_AT_EPOCH":"9264","ELEMENT_SET_NO":"999","NORAD_CAT_ID":"46577","TIME_SYSTEM":"UTC","EPHEMERIS_TYPE":"0","MEAN_MOTION_DOT":"0.00000000","RCS_SIZE":"LARGE","SITE":"AFETR","RA_OF_ASC_NODE":"209.0522","COUNTRY_CODE":"US","FILE":"3481313","TLE_LINE2":"2 46577  53.0534 209.0522 0001687  51.7664 308.3476 15.06399630 92646","OBJECT_TYPE":"PAYLOAD"},{"GP_ID":"205384703","REF_FRAME":"TEME","APOAPSIS":"548.311","MEAN_ANOMALY":"309.1850","CLASSIFICATION_TYPE":"U","OBJECT_ID":"2020-070AY","PERIAPSIS":"546.128","LAUNCH_DATE":"2020-10-06","BSTAR":"0.00006580300000","ECCENTRICITY":"0.00015760","ARG_OF_PERICENTER":"50.9279","INCLINATION":"53.0543","MEAN_ELEMENT_THEORY":"SGP4","TLE_LINE1":"1 46578U 20070AY  22155.82638103  .00000699  00000-0  65803-4 0  9995","DECAY_DATE":null,"EPOCH":"2022-06-04T19:49:59.320992","SEMIMAJOR_AXIS":"6925.354","CENTER_NAME":"EARTH","RCS_SIZE":"LARGE","SITE":"AFETR","RA_OF_ASC_NODE":"194.1834","COUNTRY_CODE":"US","FILE":"3481313","OBJECT_TYPE":"PAYLOAD","TLE_LINE2":"2 46578  53.0543 194.1834 0001576  50.9279 309.1850 15.06398074 92856","MEAN_MOTION_DDOT":"0.0000000000000","PERIOD":"95.592","OBJECT_NAME":"STARLINK-1683","MEAN_MOTION":"15.06398074","REV_AT_EPOCH":"9285","ELEMENT_SET_NO":"999","NORAD_CAT_ID":"46578","TIME_SYSTEM":"UTC","EPHEMERIS_TYPE":"0","MEAN_MOTION_DOT":"0.00000699"},{"EPHEMERIS_TYPE":"0","MEAN_MOTION_DOT":"-0.00000117","TIME_SYSTEM":"UTC","NORAD_CAT_ID":"46579","REV_AT_EPOCH":"9260","ELEMENT_SET_NO":"999","MEAN_MOTION":"15.06396438","PERIOD":"95.592","MEAN_MOTION_DDOT":"0.0000000000000","OBJECT_NAME":"STARLINK-1705","FILE":"3481313","COUNTRY_CODE":"US","OBJECT_TYPE":"PAYLOAD","TLE_LINE2":"2 46579  53.0548 210.3032 0001657  61.4900 298.6255 15.06396438 92607","RA_OF_ASC_NODE":"210.3032","SITE":"AFETR","RCS_SIZE":"LARGE","SEMIMAJOR_AXIS":"6925.359","CENTER_NAME":"EARTH","DECAY_DATE":null,"EPOCH":"2022-06-04T13:33:47.464416","TLE_LINE1":"1 46579U 20070AZ  22155.56513269 -.00000117  00000-0  11052-4 0  9995","MEAN_ELEMENT_THEORY":"SGP4","ECCENTRICITY":"0.00016570","ARG_OF_PERICENTER":"61.4900","INCLINATION":"53.0548","LAUNCH_DATE":"2020-10-06","BSTAR":"0.00001105200000","PERIAPSIS":"546.077","OBJECT_ID":"2020-070AZ","MEAN_ANOMALY":"298.6255","CLASSIFICATION_TYPE":"U","APOAPSIS":"548.372","REF_FRAME":"TEME","GP_ID":"205385951"},{"PERIAPSIS":"546.031","LAUNCH_DATE":"2020-10-06","BSTAR":"0.00000713000000","ECCENTRICITY":"0.00017060","INCLINATION":"53.0547","ARG_OF_PERICENTER":"54.8791","MEAN_ELEMENT_THEORY":"SGP4","TLE_LINE1":"1 46580U 20070BA  22155.87474857 -.00000175  00000-0  71300-5 0  9997","DECAY_DATE":null,"EPOCH":"2022-06-04T20:59:38.276448","SEMIMAJOR_AXIS":"6925.348","CENTER_NAME":"EARTH","GP_ID":"205385698","REF_FRAME":"TEME","APOAPSIS":"548.394","MEAN_ANOMALY":"305.2358","CLASSIFICATION_TYPE":"U","OBJECT_ID":"2020-070BA","MEAN_MOTION_DDOT":"0.0000000000000","PERIOD":"95.592","MEAN_MOTION":"15.06400243","OBJECT_NAME":"STARLINK-1708","REV_AT_EPOCH":"9265","ELEMENT_SET_NO":"999","NORAD_CAT_ID":"46580","TIME_SYSTEM":"UTC","EPHEMERIS_TYPE":"0","MEAN_MOTION_DOT":"-0.00000175","RCS_SIZE":"LARGE","SITE":"AFETR","RA_OF_ASC_NODE":"208.9082","FILE":"3481313","COUNTRY_CODE":"US","TLE_LINE2":"2 46580  53.0547 208.9082 0001706  54.8791 305.2358 15.06400243 92659","OBJECT_TYPE":"PAYLOAD"},{"RA_OF_ASC_NODE":"204.0823","TLE_LINE2":"2 46581  53.0545 204.0823 0001543  54.8156 305.2978 15.06398603 92713","OBJECT_TYPE":"PAYLOAD","FILE":"3481313","COUNTRY_CODE":"US","RCS_SIZE":"LARGE","SITE":"AFETR","NORAD_CAT_ID":"46581","TIME_SYSTEM":"UTC","MEAN_MOTION_DOT":"0.00000128","EPHEMERIS_TYPE":"0","PERIOD":"95.592","MEAN_MOTION_DDOT":"0.0000000000000","OBJECT_NAME":"STARLINK-1712","MEAN_MOTION":"15.06398603","ELEMENT_SET_NO":"999","REV_AT_EPOCH":"9271","APOAPSIS":"548.286","CLASSIFICATION_TYPE":"U","MEAN_ANOMALY":"305.2978","OBJECT_ID":"2020-070BB","GP_ID":"205384453","REF_FRAME":"TEME","TLE_LINE1":"1 46581U 20070BB  22155.84019072  .00000128  00000-0  27473-4 0  9997","EPOCH":"2022-06-04T20:09:52.478208","DECAY_DATE":null,"CENTER_NAME":"EARTH","SEMIMAJOR_AXIS":"6925.353","PERIAPSIS":"546.149","BSTAR":"0.00002747300000","LAUNCH_DATE":"2020-10-06","INCLINATION":"53.0545","ARG_OF_PERICENTER":"54.8156","ECCENTRICITY":"0.00015430","MEAN_ELEMENT_THEORY":"SGP4"}];
